2017122112 - METAR SBRJ 211200Z 15007KT CAVOK 30/22 Q1011=
